start=new Date('2023-02-22T00:00:00.000Z').valueOf();
sats=[{"PERIOD":"95.589","RCS_SIZE":"LARGE","TLE_LINE2":"2 44772  53.0536 158.2558 0001669  64.1384 295.9777 15.06452814180876","MEAN_MOTION":"15.06452814","ARG_OF_PERICENTER":"64.1384","TLE_LINE1":"1 44772U 19074BM  23052.76211057  .00034273  00000-0  23053-2 0  9990","GP_ID":"226329145","MEAN_MOTION_DOT":"0.00034273","TIME_SYSTEM":"UTC","REF_FRAME":"TEME","PERIAPSIS":"545.896","APOAPSIS":"548.208","DECAY_DATE":null,"OBJECT_ID":"2019-074BM","ECCENTRICITY":"0.00016690","FILE":"3821329","MEAN_ANOMALY":"295.9777","BSTAR":"0.00230530000000","OBJECT_NAME":"STARLINK-1068","SEMIMAJOR_AXIS":"6925.187","CLASSIFICATION_TYPE":"U","RA_OF_ASC_NODE":"158.2558","EPOCH":"2023-02-21T18:17:26.353248","INCLINATION":"53.0536","COUNTRY_CODE":"US","MEAN_ELEMENT_THEORY":"SGP4","EPHEMERIS_TYPE":"0","LAUNCH_DATE":"2019-11-11","ELEMENT_SET_NO":"999","CENTER_NAME":"EARTH","SITE":"AFETR","OBJECT_TYPE":"PAYLOAD","NORAD_CAT_ID":"44772","REV_AT_EPOCH":"18087","MEAN_MOTION_DDOT":"0.0000000000000"},{"SITE":"AFETR","CENTER_NAME":"EARTH","LAUNCH_DATE":"2020-01-07","ELEMENT_SET_NO":"999","MEAN_MOTION_DDOT":"0.0000000000000","REV_AT_EPOCH":"17227","NORAD_CAT_ID":"44914","OBJECT_TYPE":"PAYLOAD","INCLINATION":"53.0518","EPOCH":"2023-02-21T21:52:24.884832","RA_OF_ASC_NODE":"297.5898","EPHEMERIS_TYPE":"0","MEAN_ELEMENT_THEORY":"SGP4","COUNTRY_CODE":"US","ECCENTRICITY":"0.00007320","OBJECT_ID":"2020-001A","CLASSIFICATION_TYPE":"U","BSTAR":"0.00145760000000","OBJECT_NAME":"STARLINK-1073","SEMIMAJOR_AXIS":"6925.383","MEAN_ANOMALY":"242.4565","FILE":"3821329","MEAN_MOTION":"15.06388742","ARG_OF_PERICENTER":"117.6498","TLE_LINE2":"2 44914  53.0518 297.5898 0000732 117.6498 242.4565 15.06388742172273","RCS_SIZE":"LARGE","PERIOD":"95.593","APOAPSIS":"547.755","PERIAPSIS":"546.741","REF_FRAME":"TEME","DECAY_DATE":null,"TIME_SYSTEM":"UTC","GP_ID":"226329409","MEAN_MOTION_DOT":"0.00021489","TLE_LINE1":"1 44914U 20001A   23052.91139913  .00021489  00000-0  14576-2 0  9992"},{"ELEMENT_SET_NO":"999","LAUNCH_DATE":"2020-01-07","CENTER_NAME":"EARTH","SITE":"AFETR","OBJECT_TYPE":"PAYLOAD","NORAD_CAT_ID":"44915","REV_AT_EPOCH":"17227","MEAN_MOTION_DDOT":"0.0000000000000","RA_OF_ASC_NODE":"297.7513","EPOCH":"2023-02-21T20:59:21.094944","INCLINATION":"53.0512","COUNTRY_CODE":"US","MEAN_ELEMENT_THEORY":"SGP4","EPHEMERIS_TYPE":"0","OBJECT_ID":"2020-001B","ECCENTRICITY":"0.00012460","MEAN_ANOMALY":"274.0312","FILE":"3821329","SEMIMAJOR_AXIS":"6925.221","BSTAR":"0.00165220000000","OBJECT_NAME":"STARLINK-1084","CLASSIFICATION_TYPE":"U","PERIOD":"95.589","RCS_SIZE":"LARGE","TLE_LINE2":"2 44915  53.0512 297.7513 0001246  86.0820 274.0312 15.06441620172279","ARG_OF_PERICENTER":"86.0820","MEAN_MOTION":"15.06441620","TLE_LINE1":"1 44915U 20001B   23052.87454971  .00024441  00000-0  16522-2 0  9996","MEAN_MOTION_DOT":"0.00024441","GP_ID":"226328159","TIME_SYSTEM":"UTC","DECAY_DATE":null,"APOAPSIS":"547.949","PERIAPSIS":"546.223","REF_FRAME":"TEME"},{"REV_AT_EPOCH":"17227","MEAN_MOTION_DDOT":"0.0000000000000","OBJECT_TYPE":"PAYLOAD","NORAD_CAT_ID":"44917","CENTER_NAME":"EARTH","SITE":"AFETR","LAUNCH_DATE":"2020-01-07","ELEMENT_SET_NO":"999","MEAN_ELEMENT_THEORY":"SGP4","EPHEMERIS_TYPE":"0","COUNTRY_CODE":"US","INCLINATION":"53.0528","RA_OF_ASC_NODE":"297.7358","EPOCH":"2023-02-21T21:04:38.871552","CLASSIFICATION_TYPE":"U","FILE":"3821329","MEAN_ANOMALY":"277.5009","BSTAR":"0.00170580000000","OBJECT_NAME":"STARLINK-1098","SEMIMAJOR_AXIS":"6925.345","OBJECT_ID":"2020-001D","ECCENTRICITY":"0.00012590","TIME_SYSTEM":"UTC","REF_FRAME":"TEME","PERIAPSIS":"546.338","APOAPSIS":"548.082","DECAY_DATE":null,"TLE_LINE1":"1 44917U 20001D   23052.87822768  .00025218  00000-0  17058-2 0  9999","GP_ID":"226328409","MEAN_MOTION_DOT":"0.00025218","TLE_LINE2":"2 44917  53.0528 297.7358 0001259  82.6123 277.5009 15.06401175172279","MEAN_MOTION":"15.06401175","ARG_OF_PERICENTER":"82.6123","PERIOD":"95.592","RCS_SIZE":"LARGE"},{"SITE":"AFETR","CENTER_NAME":"EARTH","ELEMENT_SET_NO":"999","LAUNCH_DATE":"2020-01-07","MEAN_MOTION_DDOT":"0.0000000000000","REV_AT_EPOCH":"17301","NORAD_CAT_ID":"44918","OBJECT_TYPE":"PAYLOAD","INCLINATION":"53.0526","EPOCH":"2023-02-21T21:24:31.441248","RA_OF_ASC_NODE":"297.7019","EPHEMERIS_TYPE":"0","MEAN_ELEMENT_THEORY":"SGP4","COUNTRY_CODE":"US","ECCENTRICITY":"0.00015640","OBJECT_ID":"2020-001E","CLASSIFICATION_TYPE":"U","SEMIMAJOR_AXIS":"6925.331","BSTAR":"0.00003231000000","OBJECT_NAME":"STARLINK-1099","FILE":"3821329","MEAN_ANOMALY":"255.4438","ARG_OF_PERICENTER":"104.6724","MEAN_MOTION":"15.06405832","TLE_LINE2":"2 44918  53.0526 297.7019 0001564 104.6724 255.4438 15.06405832173011","RCS_SIZE":"LARGE","PERIOD":"95.592","DECAY_DATE":null,"REF_FRAME":"TEME","PERIAPSIS":"546.113","APOAPSIS":"548.279","TIME_SYSTEM":"UTC","MEAN_MOTION_DOT":"0.00000200","GP_ID":"226329159","TLE_LINE1":"1 44918U 20001E   23052.89203057  .00000200  00000-0  32310-4 0  9990"},{"MEAN_MOTION_DOT":"0.00030589","GP_ID":"226328910","TLE_LINE1":"1 44920U 20001G   23052.89942008  .00030589  00000-0  17456-2 0  9994","DECAY_DATE":null,"PERIAPSIS":"527.269","REF_FRAME":"TEME","APOAPSIS":"529.800","TIME_SYSTEM":"UTC","RCS_SIZE":"LARGE","PERIOD":"95.206","ARG_OF_PERICENTER":"177.9207","MEAN_MOTION":"15.12515154","TLE_LINE2":"2 44920  53.0528 295.5016 0001832 177.9207 182.1792 15.12515154172302","SEMIMAJOR_AXIS":"6906.670","OBJECT_NAME":"STARLINK-1102","BSTAR":"0.00174560000000","MEAN_ANOMALY":"182.1792","FILE":"3821329","CLASSIFICATION_TYPE":"U","ECCENTRICITY":"0.00018320","OBJECT_ID":"2020-001G","COUNTRY_CODE":"US","EPHEMERIS_TYPE":"0","MEAN_ELEMENT_THEORY":"SGP4","EPOCH":"2023-02-21T21:35:09.894912","RA_OF_ASC_NODE":"295.5016","INCLINATION":"53.0528","NORAD_CAT_ID":"44920","OBJECT_TYPE":"PAYLOAD","MEAN_MOTION_DDOT":"0.0000000000000","REV_AT_EPOCH":"17230","ELEMENT_SET_NO":"999","LAUNCH_DATE":"2020-01-07","SITE":"AFETR","CENTER_NAME":"EARTH"},{"OBJECT_ID":"2020-001H","ECCENTRICITY":"0.00012250","CLASSIFICATION_TYPE":"U","MEAN_ANOMALY":"249.2816","FILE":"3821329","SEMIMAJOR_AXIS":"6925.274","OBJECT_NAME":"STARLINK-1103","BSTAR":"0.00141790000000","TLE_LINE2":"2 44921  53.0515 297.8104 0001225 110.8304 249.2816 15.06424349172245","ARG_OF_PERICENTER":"110.8304","MEAN_MOTION":"15.06424349","PERIOD":"95.591","RCS_SIZE":"LARGE","TIME_SYSTEM":"UTC","DECAY_DATE":null,"PERIAPSIS":"546.291","REF_FRAME":"TEME","APOAPSIS":"547.987","TLE_LINE1":"1 44921U 20001H   23052.85886432  .00020915  00000-0  14179-2 0  9990","MEAN_MOTION_DOT":"0.00020915","GP_ID":"226327660","CENTER_NAME":"EARTH","SITE":"AFETR","ELEMENT_SET_NO":"999","LAUNCH_DATE":"2020-01-07","REV_AT_EPOCH":"17224","MEAN_MOTION_DDOT":"0.0000000000000","OBJECT_TYPE":"PAYLOAD","NORAD_CAT_ID":"44921","INCLINATION":"53.0515","RA_OF_ASC_NODE":"297.8104","EPOCH":"2023-02-21T20:36:45.877248","MEAN_ELEMENT_THEORY":"SGP4","EPHEMERIS_TYPE":"0","COUNTRY_CODE":"US"},{"DECAY_DATE":null,"APOAPSIS":"547.992","PERIAPSIS":"546.145","REF_FRAME":"TEME","TIME_SYSTEM":"UTC","MEAN_MOTION_DOT":"0.00025054","GP_ID":"226327910","TLE_LINE1":"1 44922U 20001J   23052.89297662  .00025054  00000-0  16927-2 0  9998","ARG_OF_PERICENTER":"89.6750","MEAN_MOTION":"15.06447314","TLE_LINE2":"2 44922  53.0525 297.6728 0001333  89.6750 270.4392 15.06447314172270","RCS_SIZE":"LARGE","PERIOD":"95.589","CLASSIFICATION_TYPE":"U","SEMIMAJOR_AXIS":"6925.204","BSTAR":"0.00169270000000","OBJECT_NAME":"STARLINK-1104","MEAN_ANOMALY":"270.4392","FILE":"3821329","ECCENTRICITY":"0.00013330","OBJECT_ID":"2020-001J","EPHEMERIS_TYPE":"0","MEAN_ELEMENT_THEORY":"SGP4","COUNTRY_CODE":"US","INCLINATION":"53.0525","EPOCH":"2023-02-21T21:25:53.179968","RA_OF_ASC_NODE":"297.6728","MEAN_MOTION_DDOT":"0.0000000000000","REV_AT_EPOCH":"17227","NORAD_CAT_ID":"44922","OBJECT_TYPE":"PAYLOAD","SITE":"AFETR","CENTER_NAME":"EARTH","ELEMENT_SET_NO":"999","LAUNCH_DATE":"2020-01-07"},{"MEAN_ELEMENT_THEORY":"SGP4","EPHEMERIS_TYPE":"0","COUNTRY_CODE":"US","INCLINATION":"53.0539","RA_OF_ASC_NODE":"297.3257","EPOCH":"2023-02-21T21:05:32.716032","REV_AT_EPOCH":"17227","MEAN_MOTION_DDOT":"0.0000000000000","OBJECT_TYPE":"PAYLOAD","NORAD_CAT_ID":"44923","CENTER_NAME":"EARTH","SITE":"AFETR","ELEMENT_SET_NO":"999","LAUNCH_DATE":"2020-01-07","TIME_SYSTEM":"UTC","DECAY_DATE":null,"REF_FRAME":"TEME","PERIAPSIS":"536.200","APOAPSIS":"541.069","TLE_LINE1":"1 44923U 20001K   23052.87885088  .00029736  00000-0  18597-2 0  9998","MEAN_MOTION_DOT":"0.00029736","GP_ID":"226328662","TLE_LINE2":"2 44923  53.0539 297.3257 0003520 137.7089 222.4173 15.09203576172277","ARG_OF_PERICENTER":"137.7089","MEAN_MOTION":"15.09203576","PERIOD":"95.415","RCS_SIZE":"LARGE","CLASSIFICATION_TYPE":"U","MEAN_ANOMALY":"222.4173","FILE":"3821329","SEMIMAJOR_AXIS":"6916.769","BSTAR":"0.00185970000000","OBJECT_NAME":"STARLINK-1106","OBJECT_ID":"2020-001K","ECCENTRICITY":"0.00035200"},{"COUNTRY_CODE":"US","MEAN_ELEMENT_THEORY":"SGP4","EPHEMERIS_TYPE":"0","RA_OF_ASC_NODE":"297.6186","EPOCH":"2023-02-21T21:47:07.606752","INCLINATION":"53.0539","OBJECT_TYPE":"PAYLOAD","NORAD_CAT_ID":"44924","REV_AT_EPOCH":"17227","MEAN_MOTION_DDOT":"0.0000000000000","LAUNCH_DATE":"2020-01-07","ELEMENT_SET_NO":"999","CENTER_NAME":"EARTH","SITE":"AFETR","TLE_LINE1":"1 44924U 20001L   23052.90772693 -.00002932  00000-0 -17804-3 0  9992","GP_ID":"226329410","MEAN_MOTION_DOT":"-0.00002932","TIME_SYSTEM":"UTC","PERIAPSIS":"546.308","APOAPSIS":"548.181","REF_FRAME":"TEME","DECAY_DATE":null,"PERIOD":"95.593","RCS_SIZE":"LARGE","TLE_LINE2":"2 44924  53.0539 297.6186 0001352  90.8743 269.2401 15.06389885172277","MEAN_MOTION":"15.06389885","ARG_OF_PERICENTER":"90.8743","FILE":"3821329","MEAN_ANOMALY":"269.2401","BSTAR":"-0.00017804000000","OBJECT_NAME":"STARLINK-1111","SEMIMAJOR_AXIS":"6925.380","CLASSIFICATION_TYPE":"U","OBJECT_ID":"2020-001L","ECCENTRICITY":"0.00013520"}];
